{
  "norad_id": 48051,
  "name": "ONEWEB-0112",
  "history": [
    {
      "epoch": "2026-04-11T09:04:29.154144Z",
      "apogee_km": 1211.1882590349442,
      "perigee_km": 1208.3503820710575,
      "latitude_deg": -1.7362834331887135e-05,
      "longitude_deg": -2.212041430737273,
      "height_km": 1212.2962754089176,
      "semi_major_axis_km": 7587.906320553001,
      "eccentricity": 0.000187,
      "inclination_deg": 87.8999,
      "raan_deg": 333.5079,
      "arg_perigee_deg": 75.2085,
      "mean_anomaly_deg": 284.9251,
      "mean_motion_rev_day": 13.13468982
    },
    {
      "epoch": "2026-04-12T08:50:31.813728Z",
      "apogee_km": 1211.181044473752,
      "perigee_km": 1208.3603156727622,
      "latitude_deg": 5.325327660691384e-06,
      "longitude_deg": 0.10398398381763954,
      "height_km": 1212.3004876460323,
      "semi_major_axis_km": 7587.907680073257,
      "eccentricity": 0.00018587,
      "inclination_deg": 87.8997,
      "raan_deg": 333.3111,
      "arg_perigee_deg": 75.2358,
      "mean_anomaly_deg": 284.8977,
      "mean_motion_rev_day": 13.13468629
    },
    {
      "epoch": "2026-04-14T21:10:29.536320Z",
      "apogee_km": 1211.151671626907,
      "perigee_km": 1208.391190539679,
      "latitude_deg": -2.6727298569389254e-05,
      "longitude_deg": 172.13589763779459,
      "height_km": 1212.3019754897568,
      "semi_major_axis_km": 7587.908431083292,
      "eccentricity": 0.0001819,
      "inclination_deg": 87.8996,
      "raan_deg": 332.8113,
      "arg_perigee_deg": 74.9344,
      "mean_anomaly_deg": 285.1986,
      "mean_motion_rev_day": 13.13468434
    },
    {
      "epoch": "2026-04-15T20:56:32.353152Z",
      "apogee_km": 1211.1366267205149,
      "perigee_km": 1208.4049799113209,
      "latitude_deg": 7.895615584079388e-05,
      "longitude_deg": 174.4514721672014,
      "height_km": 1212.3063378767822,
      "semi_major_axis_km": 7587.907803315918,
      "eccentricity": 0.00018,
      "inclination_deg": 87.8998,
      "raan_deg": 332.6147,
      "arg_perigee_deg": 74.9876,
      "mean_anomaly_deg": 285.1453,
      "mean_motion_rev_day": 13.13468597
    },
    {
      "epoch": "2026-04-16T20:42:35.289216Z",
      "apogee_km": 1211.122799168891,
      "perigee_km": 1208.4230208229155,
      "latitude_deg": 4.479026019006446e-06,
      "longitude_deg": 176.76644192480117,
      "height_km": 1212.3142023817518,
      "semi_major_axis_km": 7587.909909995903,
      "eccentricity": 0.0001779,
      "inclination_deg": 87.8995,
      "raan_deg": 332.418,
      "arg_perigee_deg": 75.0573,
      "mean_anomaly_deg": 285.0753,
      "mean_motion_rev_day": 13.1346805
    },
    {
      "epoch": "2026-04-17T20:28:38.161344Z",
      "apogee_km": 1211.0973930708506,
      "perigee_km": 1208.446177741229,
      "latitude_deg": -2.3037571379247552e-05,
      "longitude_deg": 179.0814798851172,
      "height_km": 1212.314868083812,
      "semi_major_axis_km": 7587.908785406039,
      "eccentricity": 0.0001747,
      "inclination_deg": 87.8993,
      "raan_deg": 332.2211,
      "arg_perigee_deg": 74.8545,
      "mean_anomaly_deg": 285.2777,
      "mean_motion_rev_day": 13.13468342
    },
    {
      "epoch": "2026-04-18T14:45:35.714016Z",
      "apogee_km": 1211.0957482641943,
      "perigee_km": 1208.4445335091677,
      "latitude_deg": 7.222659854999758e-05,
      "longitude_deg": -96.06056117324383,
      "height_km": 1212.3144808720467,
      "semi_major_axis_km": 7587.90714088668,
      "eccentricity": 0.0001747,
      "inclination_deg": 87.8991,
      "raan_deg": 332.0697,
      "arg_perigee_deg": 74.9115,
      "mean_anomaly_deg": 285.2208,
      "mean_motion_rev_day": 13.13468769
    },
    {
      "epoch": "2026-04-19T14:31:38.467776Z",
      "apogee_km": 1211.094265188497,
      "perigee_km": 1208.4415336356633,
      "latitude_deg": 3.451325841708677e-05,
      "longitude_deg": -93.74503104578221,
      "height_km": 1212.3185639344,
      "semi_major_axis_km": 7587.90489941208,
      "eccentricity": 0.0001748,
      "inclination_deg": 87.8988,
      "raan_deg": 331.8728,
      "arg_perigee_deg": 75.2031,
      "mean_anomaly_deg": 284.9292,
      "mean_motion_rev_day": 13.13469351
    },
    {
      "epoch": "2026-04-20T08:48:36.071424Z",
      "apogee_km": 1211.0877884572883,
      "perigee_km": 1208.4575154555341,
      "latitude_deg": -4.144611854457414e-05,
      "longitude_deg": -8.887392808449087,
      "height_km": 1212.3115051397856,
      "semi_major_axis_km": 7587.909651956411,
      "eccentricity": 0.00017332,
      "inclination_deg": 87.8986,
      "raan_deg": 331.7213,
      "arg_perigee_deg": 74.5388,
      "mean_anomaly_deg": 285.5932,
      "mean_motion_rev_day": 13.13468117
    },
    {
      "epoch": "2026-04-21T21:22:30.741312Z",
      "apogee_km": 1211.0951892909325,
      "perigee_km": 1208.4318362109561,
      "latitude_deg": 5.0727636687260375e-06,
      "longitude_deg": 160.83003512570684,
      "height_km": 1212.325960096434,
      "semi_major_axis_km": 7587.900512750944,
      "eccentricity": 0.0001755,
      "inclination_deg": 87.8989,
      "raan_deg": 331.4182,
      "arg_perigee_deg": 75.7875,
      "mean_anomaly_deg": 284.3449,
      "mean_motion_rev_day": 13.1347049
    },
    {
      "epoch": "2026-04-22T12:00:05.436288Z",
      "apogee_km": 1211.2066463068204,
      "perigee_km": 1208.5690488697983,
      "latitude_deg": 1.27296707553921e-05,
      "longitude_deg": -59.28630946383018,
      "height_km": 1212.5775071667529,
      "semi_major_axis_km": 7588.024847588309,
      "eccentricity": 0.0001738,
      "inclination_deg": 87.8988,
      "raan_deg": 331.2971,
      "arg_perigee_deg": 81.2911,
      "mean_anomaly_deg": 278.8415,
      "mean_motion_rev_day": 13.13438207
    },
    {
      "epoch": "2026-04-23T02:37:38.595936Z",
      "apogee_km": 1211.0624328754966,
      "perigee_km": 1208.4707085318869,
      "latitude_deg": 3.1963615266863837e-05,
      "longitude_deg": 80.60366117660239,
      "height_km": 1212.337219109787,
      "semi_major_axis_km": 7587.903570703692,
      "eccentricity": 0.00017078,
      "inclination_deg": 87.8983,
      "raan_deg": 331.1759,
      "arg_perigee_deg": 75.7572,
      "mean_anomaly_deg": 284.3747,
      "mean_motion_rev_day": 13.13469696
    },
    {
      "epoch": "2026-04-24T15:11:33.357408Z",
      "apogee_km": 1211.0667484274463,
      "perigee_km": 1208.4686498584588,
      "latitude_deg": 2.0024291349683176e-06,
      "longitude_deg": -109.67979474757615,
      "height_km": 1212.3332375389068,
      "semi_major_axis_km": 7587.904699142952,
      "eccentricity": 0.0001712,
      "inclination_deg": 87.8978,
      "raan_deg": 330.8723,
      "arg_perigee_deg": 75.5605,
      "mean_anomaly_deg": 284.5714,
      "mean_motion_rev_day": 13.13469403
    },
    {
      "epoch": "2026-04-25T14:57:36.071424Z",
      "apogee_km": 1211.033862451167,
      "perigee_km": 1208.504054604593,
      "latitude_deg": 4.5495570698341616e-05,
      "longitude_deg": -107.36439520443041,
      "height_km": 1212.3577231732702,
      "semi_major_axis_km": 7587.905958527879,
      "eccentricity": 0.0001667,
      "inclination_deg": 87.8977,
      "raan_deg": 330.6751,
      "arg_perigee_deg": 76.2446,
      "mean_anomaly_deg": 283.8869,
      "mean_motion_rev_day": 13.13469076
    },
    {
      "epoch": "2026-04-26T20:12:44.012448Z",
      "apogee_km": 1211.0293435383173,
      "perigee_km": 1208.5065169071167,
      "latitude_deg": 4.1097452164354275e-05,
      "longitude_deg": 172.40907207514678,
      "height_km": 1212.3728718587577,
      "semi_major_axis_km": 7587.904930222717,
      "eccentricity": 0.00016624,
      "inclination_deg": 87.8975,
      "raan_deg": 330.433,
      "arg_perigee_deg": 76.9611,
      "mean_anomaly_deg": 283.1704,
      "mean_motion_rev_day": 13.13469343
    },
    {
      "epoch": "2026-04-27T19:58:46.835328Z",
      "apogee_km": 1211.0224459245255,
      "perigee_km": 1208.5154018072799,
      "latitude_deg": 2.4225670950317094e-05,
      "longitude_deg": 174.72431571045868,
      "height_km": 1212.3851566659334,
      "semi_major_axis_km": 7587.905923865902,
      "eccentricity": 0.0001652,
      "inclination_deg": 87.8973,
      "raan_deg": 330.2361,
      "arg_perigee_deg": 77.4062,
      "mean_anomaly_deg": 282.7252,
      "mean_motion_rev_day": 13.13469085
    },
    {
      "epoch": "2026-04-28T14:15:44.394048Z",
      "apogee_km": 1211.0059797517943,
      "perigee_km": 1208.5308050127996,
      "latitude_deg": -3.59177790400939e-05,
      "longitude_deg": -100.4178558969007,
      "height_km": 1212.3865535243312,
      "semi_major_axis_km": 7587.905392382297,
      "eccentricity": 0.0001631,
      "inclination_deg": 87.8972,
      "raan_deg": 330.0846,
      "arg_perigee_deg": 77.3307,
      "mean_anomaly_deg": 282.8004,
      "mean_motion_rev_day": 13.13469223
    },
    {
      "epoch": "2026-04-29T14:01:47.274816Z",
      "apogee_km": 1210.9950371047416,
      "perigee_km": 1208.545660612529,
      "latitude_deg": 2.7727829318578543e-05,
      "longitude_deg": -98.1029515159197,
      "height_km": 1212.3992950144607,
      "semi_major_axis_km": 7587.907348858635,
      "eccentricity": 0.0001614,
      "inclination_deg": 87.897,
      "raan_deg": 329.8876,
      "arg_perigee_deg": 77.7112,
      "mean_anomaly_deg": 282.4198,
      "mean_motion_rev_day": 13.13468715
    },
    {
      "epoch": "2026-04-30T13:47:50.003520Z",
      "apogee_km": 1210.995341516048,
      "perigee_km": 1208.5364057108245,
      "latitude_deg": -1.2212458055379694e-05,
      "longitude_deg": -95.78731618451438,
      "height_km": 1212.4156050843903,
      "semi_major_axis_km": 7587.902873613436,
      "eccentricity": 0.00016203,
      "inclination_deg": 87.8968,
      "raan_deg": 329.6907,
      "arg_perigee_deg": 78.7496,
      "mean_anomaly_deg": 281.3815,
      "mean_motion_rev_day": 13.13469877
    }
  ]
}